{
  "type": "FeatureCollection",
  "features": [
    {"type": "Feature", "properties": {"wilaya_code": "16", "wilaya_name": "Alger", "lat": 36.7538, "lng": 3.0588}, "geometry": {"type": "Polygon", "coordinates": [[[2.8, 36.95], [3.4, 36.95], [3.4, 36.55], [2.8, 36.55], [2.8, 36.95]]]}},
    {"type": "Feature", "properties": {"wilaya_code": "35", "wilaya_name": "Boumerdès", "lat": 36.7333, "lng": 3.4667}, "geometry": {"type": "Polygon", "coordinates": [[[3.2, 36.95], [3.8, 36.95], [3.8, 36.55], [3.2, 36.55], [3.2, 36.95]]]}},
    {"type": "Feature", "properties": {"wilaya_code": "42", "wilaya_name": "Tipaza", "lat": 36.5667, "lng": 2.4667}, "geometry": {"type": "Polygon", "coordinates": [[[2.1, 36.8], [2.8, 36.8], [2.8, 36.3], [2.1, 36.3], [2.1, 36.8]]]}},
    {"type": "Feature", "properties": {"wilaya_code": "26", "wilaya_name": "Médéa", "lat": 36.2333, "lng": 2.7333}, "geometry": {"type": "Polygon", "coordinates": [[[2.3, 36.5], [3.2, 36.5], [3.2, 36.0], [2.3, 36.0], [2.3, 36.5]]]}},
    {"type": "Feature", "properties": {"wilaya_code": "44", "wilaya_name": "Aïn Defla", "lat": 36.25, "lng": 1.9667}, "geometry": {"type": "Polygon", "coordinates": [[[1.6, 36.5], [2.3, 36.5], [2.3, 36.0], [1.6, 36.0], [1.6, 36.5]]]}},
    {"type": "Feature", "properties": {"wilaya_code": "09", "wilaya_name": "Blida", "lat": 36.4167, "lng": 2.8333}, "geometry": {"type": "Polygon", "coordinates": [[[2.5, 36.65], [3.1, 36.65], [3.1, 36.2], [2.5, 36.2], [2.5, 36.65]]]}},
    {"type": "Feature", "properties": {"wilaya_code": "15", "wilaya_name": "Tizi Ouzou", "lat": 36.7167, "lng": 4.05}, "geometry": {"type": "Polygon", "coordinates": [[[3.7, 36.95], [4.4, 36.95], [4.4, 36.5], [3.7, 36.5], [3.7, 36.95]]]}},
    {"type": "Feature", "properties": {"wilaya_code": "06", "wilaya_name": "Béjaïa", "lat": 36.75, "lng": 5.0667}, "geometry": {"type": "Polygon", "coordinates": [[[4.7, 37.0], [5.4, 37.0], [5.4, 36.5], [4.7, 36.5], [4.7, 37.0]]]}},
    {"type": "Feature", "properties": {"wilaya_code": "10", "wilaya_name": "Bouira", "lat": 36.3667, "lng": 3.9}, "geometry": {"type": "Polygon", "coordinates": [[[3.6, 36.65], [4.2, 36.65], [4.2, 36.1], [3.6, 36.1], [3.6, 36.65]]]}},
    {"type": "Feature", "properties": {"wilaya_code": "19", "wilaya_name": "Sétif", "lat": 36.1833, "lng": 5.4167}, "geometry": {"type": "Polygon", "coordinates": [[[5.0, 36.5], [5.8, 36.5], [5.8, 35.9], [5.0, 35.9], [5.0, 36.5]]]}},
    {"type": "Feature", "properties": {"wilaya_code": "25", "wilaya_name": "Constantine", "lat": 36.3667, "lng": 6.6167}, "geometry": {"type": "Polygon", "coordinates": [[[6.2, 36.7], [7.0, 36.7], [7.0, 36.0], [6.2, 36.0], [6.2, 36.7]]]}},
    {"type": "Feature", "properties": {"wilaya_code": "43", "wilaya_name": "Mila", "lat": 36.4333, "lng": 6.25}, "geometry": {"type": "Polygon", "coordinates": [[[5.9, 36.7], [6.6, 36.7], [6.6, 36.2], [5.9, 36.2], [5.9, 36.7]]]}},
    {"type": "Feature", "properties": {"wilaya_code": "18", "wilaya_name": "Jijel", "lat": 36.8167, "lng": 5.7667}, "geometry": {"type": "Polygon", "coordinates": [[[5.4, 37.0], [6.1, 37.0], [6.1, 36.6], [5.4, 36.6], [5.4, 37.0]]]}},
    {"type": "Feature", "properties": {"wilaya_code": "21", "wilaya_name": "Skikda", "lat": 36.8667, "lng": 6.9}, "geometry": {"type": "Polygon", "coordinates": [[[6.5, 37.0], [7.3, 37.0], [7.3, 36.7], [6.5, 36.7], [6.5, 37.0]]]}},
    {"type": "Feature", "properties": {"wilaya_code": "23", "wilaya_name": "Annaba", "lat": 36.9, "lng": 7.7667}, "geometry": {"type": "Polygon", "coordinates": [[[7.4, 37.1], [8.1, 37.1], [8.1, 36.7], [7.4, 36.7], [7.4, 37.1]]]}},
    {"type": "Feature", "properties": {"wilaya_code": "36", "wilaya_name": "El Tarf", "lat": 36.7333, "lng": 8.3}, "geometry": {"type": "Polygon", "coordinates": [[[8.0, 36.95], [8.6, 36.95], [8.6, 36.55], [8.0, 36.55], [8.0, 36.95]]]}},
    {"type": "Feature", "properties": {"wilaya_code": "24", "wilaya_name": "Guelma", "lat": 36.4667, "lng": 7.4333}, "geometry": {"type": "Polygon", "coordinates": [[[7.0, 36.7], [7.85, 36.7], [7.85, 36.2], [7.0, 36.2], [7.0, 36.7]]]}},
    {"type": "Feature", "properties": {"wilaya_code": "41", "wilaya_name": "Souk Ahras", "lat": 35.8333, "lng": 7.9667}, "geometry": {"type": "Polygon", "coordinates": [[[7.6, 36.0], [8.3, 36.0], [8.3, 35.6], [7.6, 35.6], [7.6, 36.0]]]}},
    {"type": "Feature", "properties": {"wilaya_code": "12", "wilaya_name": "Tébessa", "lat": 35.4, "lng": 8.1167}, "geometry": {"type": "Polygon", "coordinates": [[[7.7, 35.6], [8.5, 35.6], [8.5, 35.1], [7.7, 35.1], [7.7, 35.6]]]}},
    {"type": "Feature", "properties": {"wilaya_code": "04", "wilaya_name": "Oum El Bouaghi", "lat": 35.8667, "lng": 7.1167}, "geometry": {"type": "Polygon", "coordinates": [[[6.7, 36.1], [7.5, 36.1], [7.5, 35.6], [6.7, 35.6], [6.7, 36.1]]]}},
    {"type": "Feature", "properties": {"wilaya_code": "05", "wilaya_name": "Batna", "lat": 35.55, "lng": 6.1667}, "geometry": {"type": "Polygon", "coordinates": [[[5.7, 35.9], [6.6, 35.9], [6.6, 35.2], [5.7, 35.2], [5.7, 35.9]]]}},
    {"type": "Feature", "properties": {"wilaya_code": "28", "wilaya_name": "M'Sila", "lat": 35.7, "lng": 4.5667}, "geometry": {"type": "Polygon", "coordinates": [[[4.0, 36.0], [5.2, 36.0], [5.2, 35.4], [4.0, 35.4], [4.0, 36.0]]]}},
    {"type": "Feature", "properties": {"wilaya_code": "34", "wilaya_name": "Bordj Bou Arréridj", "lat": 35.7667, "lng": 4.7667}, "geometry": {"type": "Polygon", "coordinates": [[[4.3, 36.0], [5.2, 36.0], [5.2, 35.55], [4.3, 35.55], [4.3, 36.0]]]}},
    {"type": "Feature", "properties": {"wilaya_code": "03", "wilaya_name": "Laghouat", "lat": 33.8, "lng": 2.8667}, "geometry": {"type": "Polygon", "coordinates": [[[2.4, 34.1], [3.3, 34.1], [3.3, 33.5], [2.4, 33.5], [2.4, 34.1]]]}},
    {"type": "Feature", "properties": {"wilaya_code": "17", "wilaya_name": "Djelfa", "lat": 34.6667, "lng": 3.2667}, "geometry": {"type": "Polygon", "coordinates": [[[2.8, 35.0], [3.7, 35.0], [3.7, 34.3], [2.8, 34.3], [2.8, 35.0]]]}},
    {"type": "Feature", "properties": {"wilaya_code": "02", "wilaya_name": "Chlef", "lat": 36.1667, "lng": 1.3333}, "geometry": {"type": "Polygon", "coordinates": [[[0.9, 36.4], [1.8, 36.4], [1.8, 35.9], [0.9, 35.9], [0.9, 36.4]]]}},
    {"type": "Feature", "properties": {"wilaya_code": "27", "wilaya_name": "Mostaganem", "lat": 35.9333, "lng": 0.0917}, "geometry": {"type": "Polygon", "coordinates": [[-0.3, 36.2], [0.5, 36.2], [0.5, 35.7], [-0.3, 35.7], [-0.3, 36.2]]]}},
    {"type": "Feature", "properties": {"wilaya_code": "31", "wilaya_name": "Oran", "lat": 35.7333, "lng": -0.6417}, "geometry": {"type": "Polygon", "coordinates": [[-1.0, 36.0], [-0.3, 36.0], [-0.3, 35.45], [-1.0, 35.45], [-1.0, 36.0]]]}},
    {"type": "Feature", "properties": {"wilaya_code": "13", "wilaya_name": "Tlemcen", "lat": 34.8783, "lng": -1.315}, "geometry": {"type": "Polygon", "coordinates": [[-1.7, 35.1], [-0.9, 35.1], [-0.9, 34.6], [-1.7, 34.6], [-1.7, 35.1]]]}},
    {"type": "Feature", "properties": {"wilaya_code": "22", "wilaya_name": "Sidi Bel Abbès", "lat": 35.2, "lng": -0.6333}, "geometry": {"type": "Polygon", "coordinates": [[-1.0, 35.5], [-0.3, 35.5], [-0.3, 34.9], [-1.0, 34.9], [-1.0, 35.5]]]}},
    {"type": "Feature", "properties": {"wilaya_code": "29", "wilaya_name": "Mascara", "lat": 35.4, "lng": -0.3833}, "geometry": {"type": "Polygon", "coordinates": [[-0.8, 35.7], [-0.0, 35.7], [-0.0, 35.1], [-0.8, 35.1], [-0.8, 35.7]]]}},
    {"type": "Feature", "properties": {"wilaya_code": "20", "wilaya_name": "Saïda", "lat": 34.8333, "lng": 0.15}, "geometry": {"type": "Polygon", "coordinates": [[-0.3, 35.1], [0.6, 35.1], [0.6, 34.5], [-0.3, 34.5], [-0.3, 35.1]]]}},
    {"type": "Feature", "properties": {"wilaya_code": "14", "wilaya_name": "Tiaret", "lat": 35.3667, "lng": 1.3167}, "geometry": {"type": "Polygon", "coordinates": [[[0.9, 35.7], [1.8, 35.7], [1.8, 35.0], [0.9, 35.0], [0.9, 35.7]]]}},
    {"type": "Feature", "properties": {"wilaya_code": "38", "wilaya_name": "Tissemsilt", "lat": 35.65, "lng": 1.8167}, "geometry": {"type": "Polygon", "coordinates": [[[1.4, 35.95], [2.25, 35.95], [2.25, 35.35], [1.4, 35.35], [1.4, 35.95]]]}},
    {"type": "Feature", "properties": {"wilaya_code": "46", "wilaya_name": "Aïn Témouchent", "lat": 35.3, "lng": -1.1333}, "geometry": {"type": "Polygon", "coordinates": [[-1.5, 35.55], [-0.8, 35.55], [-0.8, 35.05], [-1.5, 35.05], [-1.5, 35.55]]]}},
    {"type": "Feature", "properties": {"wilaya_code": "07", "wilaya_name": "Biskra", "lat": 34.85, "lng": 5.7333}, "geometry": {"type": "Polygon", "coordinates": [[[5.3, 35.15], [6.2, 35.15], [6.2, 34.55], [5.3, 34.55], [5.3, 35.15]]]}},
    {"type": "Feature", "properties": {"wilaya_code": "40", "wilaya_name": "Khenchela", "lat": 34.6667, "lng": 7.15}, "geometry": {"type": "Polygon", "coordinates": [[[6.8, 34.95], [7.5, 34.95], [7.5, 34.4], [6.8, 34.4], [6.8, 34.95]]]}},
    {"type": "Feature", "properties": {"wilaya_code": "39", "wilaya_name": "El Oued", "lat": 33.3667, "lng": 6.5667}, "geometry": {"type": "Polygon", "coordinates": [[[6.1, 33.7], [7.0, 33.7], [7.0, 33.0], [6.1, 33.0], [6.1, 33.7]]]}},
    {"type": "Feature", "properties": {"wilaya_code": "30", "wilaya_name": "Ouargla", "lat": 31.95, "lng": 5.3167}, "geometry": {"type": "Polygon", "coordinates": [[[4.8, 32.35], [5.8, 32.35], [5.8, 31.55], [4.8, 31.55], [4.8, 32.35]]]}},
    {"type": "Feature", "properties": {"wilaya_code": "47", "wilaya_name": "Ghardaïa", "lat": 32.4833, "lng": 3.8667}, "geometry": {"type": "Polygon", "coordinates": [[[3.3, 32.9], [4.4, 32.9], [4.4, 32.0], [3.3, 32.0], [3.3, 32.9]]]}},
    {"type": "Feature", "properties": {"wilaya_code": "45", "wilaya_name": "Naâma", "lat": 33.9, "lng": 0.3333}, "geometry": {"type": "Polygon", "coordinates": [[-0.2, 34.3], [0.9, 34.3], [0.9, 33.5], [-0.2, 33.5], [-0.2, 34.3]]]}},
    {"type": "Feature", "properties": {"wilaya_code": "32", "wilaya_name": "El Bayadh", "lat": 33.6667, "lng": 0.9}, "geometry": {"type": "Polygon", "coordinates": [[[0.4, 34.0], [1.4, 34.0], [1.4, 33.3], [0.4, 33.3], [0.4, 34.0]]]}},
    {"type": "Feature", "properties": {"wilaya_code": "01", "wilaya_name": "Adrar", "lat": 27.9768, "lng": -0.2928}, "geometry": {"type": "Polygon", "coordinates": [[-0.8, 28.3], [0.3, 28.3], [0.3, 27.6], [-0.8, 27.6], [-0.8, 28.3]]]}},
    {"type": "Feature", "properties": {"wilaya_code": "08", "wilaya_name": "Béchar", "lat": 31.6167, "lng": -2.2167}, "geometry": {"type": "Polygon", "coordinates": [[-2.8, 32.0], [-1.6, 32.0], [-1.6, 31.2], [-2.8, 31.2], [-2.8, 32.0]]]}},
    {"type": "Feature", "properties": {"wilaya_code": "37", "wilaya_name": "Tindouf", "lat": 27.6667, "lng": -8.0667}, "geometry": {"type": "Polygon", "coordinates": [[-8.6, 28.1], [-7.5, 28.1], [-7.5, 27.2], [-8.6, 27.2], [-8.6, 28.1]]]}},
    {"type": "Feature", "properties": {"wilaya_code": "11", "wilaya_name": "Tamanrasset", "lat": 22.785, "lng": 5.5228}, "geometry": {"type": "Polygon", "coordinates": [[[4.8, 23.3], [6.2, 23.3], [6.2, 22.2], [4.8, 22.2], [4.8, 23.3]]]}},
    {"type": "Feature", "properties": {"wilaya_code": "33", "wilaya_name": "Illizi", "lat": 26.8333, "lng": 8.4667}, "geometry": {"type": "Polygon", "coordinates": [[[7.8, 27.3], [9.1, 27.3], [9.1, 26.3], [7.8, 26.3], [7.8, 27.3]]]}}
  ]
}
