{
  "type": "FeatureCollection",
  "features": [
    {"type": "Feature", "properties": {"wilaya_code": "01", "wilaya_name": "Adrar"}, "geometry": {"type": "Point", "coordinates": [-0.2928, 27.9768]}},
    {"type": "Feature", "properties": {"wilaya_code": "02", "wilaya_name": "Chlef"}, "geometry": {"type": "Point", "coordinates": [1.3333, 36.1667]}},
    {"type": "Feature", "properties": {"wilaya_code": "03", "wilaya_name": "Laghouat"}, "geometry": {"type": "Point", "coordinates": [2.8667, 33.8000]}},
    {"type": "Feature", "properties": {"wilaya_code": "04", "wilaya_name": "Oum El Bouaghi"}, "geometry": {"type": "Point", "coordinates": [7.1167, 35.8667]}},
    {"type": "Feature", "properties": {"wilaya_code": "05", "wilaya_name": "Batna"}, "geometry": {"type": "Point", "coordinates": [6.1667, 35.5500]}},
    {"type": "Feature", "properties": {"wilaya_code": "06", "wilaya_name": "Béjaïa"}, "geometry": {"type": "Point", "coordinates": [5.0667, 36.7500]}},
    {"type": "Feature", "properties": {"wilaya_code": "07", "wilaya_name": "Biskra"}, "geometry": {"type": "Point", "coordinates": [5.7333, 34.8500]}},
    {"type": "Feature", "properties": {"wilaya_code": "08", "wilaya_name": "Béchar"}, "geometry": {"type": "Point", "coordinates": [-2.2167, 31.6167]}},
    {"type": "Feature", "properties": {"wilaya_code": "09", "wilaya_name": "Blida"}, "geometry": {"type": "Point", "coordinates": [2.8333, 36.4167]}},
    {"type": "Feature", "properties": {"wilaya_code": "10", "wilaya_name": "Bouira"}, "geometry": {"type": "Point", "coordinates": [3.9000, 36.3667]}},
    {"type": "Feature", "properties": {"wilaya_code": "11", "wilaya_name": "Tamanrasset"}, "geometry": {"type": "Point", "coordinates": [5.5228, 22.7850]}},
    {"type": "Feature", "properties": {"wilaya_code": "12", "wilaya_name": "Tébessa"}, "geometry": {"type": "Point", "coordinates": [8.1167, 35.4000]}},
    {"type": "Feature", "properties": {"wilaya_code": "13", "wilaya_name": "Tlemcen"}, "geometry": {"type": "Point", "coordinates": [-1.3150, 34.8783]}},
    {"type": "Feature", "properties": {"wilaya_code": "14", "wilaya_name": "Tiaret"}, "geometry": {"type": "Point", "coordinates": [1.3167, 35.3667]}},
    {"type": "Feature", "properties": {"wilaya_code": "15", "wilaya_name": "Tizi Ouzou"}, "geometry": {"type": "Point", "coordinates": [4.0500, 36.7167]}},
    {"type": "Feature", "properties": {"wilaya_code": "16", "wilaya_name": "Alger"}, "geometry": {"type": "Point", "coordinates": [3.0588, 36.7538]}},
    {"type": "Feature", "properties": {"wilaya_code": "17", "wilaya_name": "Djelfa"}, "geometry": {"type": "Point", "coordinates": [3.2667, 34.6667]}},
    {"type": "Feature", "properties": {"wilaya_code": "18", "wilaya_name": "Jijel"}, "geometry": {"type": "Point", "coordinates": [5.7667, 36.8167]}},
    {"type": "Feature", "properties": {"wilaya_code": "19", "wilaya_name": "Sétif"}, "geometry": {"type": "Point", "coordinates": [5.4167, 36.1833]}},
    {"type": "Feature", "properties": {"wilaya_code": "20", "wilaya_name": "Saïda"}, "geometry": {"type": "Point", "coordinates": [0.1500, 34.8333]}},
    {"type": "Feature", "properties": {"wilaya_code": "21", "wilaya_name": "Skikda"}, "geometry": {"type": "Point", "coordinates": [6.9000, 36.8667]}},
    {"type": "Feature", "properties": {"wilaya_code": "22", "wilaya_name": "Sidi Bel Abbès"}, "geometry": {"type": "Point", "coordinates": [-0.6333, 35.2000]}},
    {"type": "Feature", "properties": {"wilaya_code": "23", "wilaya_name": "Annaba"}, "geometry": {"type": "Point", "coordinates": [7.7667, 36.9000]}},
    {"type": "Feature", "properties": {"wilaya_code": "24", "wilaya_name": "Guelma"}, "geometry": {"type": "Point", "coordinates": [7.4333, 36.4667]}},
    {"type": "Feature", "properties": {"wilaya_code": "25", "wilaya_name": "Constantine"}, "geometry": {"type": "Point", "coordinates": [6.6167, 36.3667]}},
    {"type": "Feature", "properties": {"wilaya_code": "26", "wilaya_name": "Médéa"}, "geometry": {"type": "Point", "coordinates": [2.7333, 36.2333]}},
    {"type": "Feature", "properties": {"wilaya_code": "27", "wilaya_name": "Mostaganem"}, "geometry": {"type": "Point", "coordinates": [0.0917, 35.9333]}},
    {"type": "Feature", "properties": {"wilaya_code": "28", "wilaya_name": "M'Sila"}, "geometry": {"type": "Point", "coordinates": [4.5667, 35.7000]}},
    {"type": "Feature", "properties": {"wilaya_code": "29", "wilaya_name": "Mascara"}, "geometry": {"type": "Point", "coordinates": [-0.3833, 35.4000]}},
    {"type": "Feature", "properties": {"wilaya_code": "30", "wilaya_name": "Ouargla"}, "geometry": {"type": "Point", "coordinates": [5.3167, 31.9500]}},
    {"type": "Feature", "properties": {"wilaya_code": "31", "wilaya_name": "Oran"}, "geometry": {"type": "Point", "coordinates": [-0.6417, 35.7333]}},
    {"type": "Feature", "properties": {"wilaya_code": "32", "wilaya_name": "El Bayadh"}, "geometry": {"type": "Point", "coordinates": [0.9000, 33.6667]}},
    {"type": "Feature", "properties": {"wilaya_code": "33", "wilaya_name": "Illizi"}, "geometry": {"type": "Point", "coordinates": [8.4667, 26.8333]}},
    {"type": "Feature", "properties": {"wilaya_code": "34", "wilaya_name": "Bordj Bou Arréridj"}, "geometry": {"type": "Point", "coordinates": [4.7667, 35.7667]}},
    {"type": "Feature", "properties": {"wilaya_code": "35", "wilaya_name": "Boumerdès"}, "geometry": {"type": "Point", "coordinates": [3.4667, 36.7333]}},
    {"type": "Feature", "properties": {"wilaya_code": "36", "wilaya_name": "El Tarf"}, "geometry": {"type": "Point", "coordinates": [8.3000, 36.7333]}},
    {"type": "Feature", "properties": {"wilaya_code": "37", "wilaya_name": "Tindouf"}, "geometry": {"type": "Point", "coordinates": [-8.0667, 27.6667]}},
    {"type": "Feature", "properties": {"wilaya_code": "38", "wilaya_name": "Tissemsilt"}, "geometry": {"type": "Point", "coordinates": [1.8167, 35.6500]}},
    {"type": "Feature", "properties": {"wilaya_code": "39", "wilaya_name": "El Oued"}, "geometry": {"type": "Point", "coordinates": [6.5667, 33.3667]}},
    {"type": "Feature", "properties": {"wilaya_code": "40", "wilaya_name": "Khenchela"}, "geometry": {"type": "Point", "coordinates": [7.1500, 34.6667]}},
    {"type": "Feature", "properties": {"wilaya_code": "41", "wilaya_name": "Souk Ahras"}, "geometry": {"type": "Point", "coordinates": [7.9667, 35.8333]}},
    {"type": "Feature", "properties": {"wilaya_code": "42", "wilaya_name": "Tipaza"}, "geometry": {"type": "Point", "coordinates": [2.4667, 36.5667]}},
    {"type": "Feature", "properties": {"wilaya_code": "43", "wilaya_name": "Mila"}, "geometry": {"type": "Point", "coordinates": [6.2500, 36.4333]}},
    {"type": "Feature", "properties": {"wilaya_code": "44", "wilaya_name": "Aïn Defla"}, "geometry": {"type": "Point", "coordinates": [1.9667, 36.2500]}},
    {"type": "Feature", "properties": {"wilaya_code": "45", "wilaya_name": "Naâma"}, "geometry": {"type": "Point", "coordinates": [0.3333, 33.9000]}},
    {"type": "Feature", "properties": {"wilaya_code": "46", "wilaya_name": "Aïn Témouchent"}, "geometry": {"type": "Point", "coordinates": [-1.1333, 35.3000]}},
    {"type": "Feature", "properties": {"wilaya_code": "47", "wilaya_name": "Ghardaïa"}, "geometry": {"type": "Point", "coordinates": [3.8667, 32.4833]}},
    {"type": "Feature", "properties": {"wilaya_code": "48", "wilaya_name": "Relizane"}, "geometry": {"type": "Point", "coordinates": [0.7667, 35.7500]}},
    {"type": "Feature", "properties": {"wilaya_code": "49", "wilaya_name": "Timimoun"}, "geometry": {"type": "Point", "coordinates": [-0.3000, 29.2667]}},
    {"type": "Feature", "properties": {"wilaya_code": "50", "wilaya_name": "Bordj Badji Mokhtar"}, "geometry": {"type": "Point", "coordinates": [1.9333, 26.9167]}},
    {"type": "Feature", "properties": {"wilaya_code": "51", "wilaya_name": "Ouled Djellal"}, "geometry": {"type": "Point", "coordinates": [4.7167, 32.6667]}},
    {"type": "Feature", "properties": {"wilaya_code": "52", "wilaya_name": "Béni Abbès"}, "geometry": {"type": "Point", "coordinates": [-2.1833, 30.1167]}},
    {"type": "Feature", "properties": {"wilaya_code": "53", "wilaya_name": "In Salah"}, "geometry": {"type": "Point", "coordinates": [2.5333, 27.2000]}},
    {"type": "Feature", "properties": {"wilaya_code": "54", "wilaya_name": "In Guezzam"}, "geometry": {"type": "Point", "coordinates": [5.8000, 19.5000]}},
    {"type": "Feature", "properties": {"wilaya_code": "55", "wilaya_name": "Touggourt"}, "geometry": {"type": "Point", "coordinates": [6.0667, 33.1167]}},
    {"type": "Feature", "properties": {"wilaya_code": "56", "wilaya_name": "Djanet"}, "geometry": {"type": "Point", "coordinates": [9.4833, 24.2833]}},
    {"type": "Feature", "properties": {"wilaya_code": "57", "wilaya_name": "El M'Ghair"}, "geometry": {"type": "Point", "coordinates": [5.8667, 33.7000]}},
    {"type": "Feature", "properties": {"wilaya_code": "58", "wilaya_name": "El Meniaa"}, "geometry": {"type": "Point", "coordinates": [2.8667, 31.4333]}}
  ]
}
