{
  "type": "FeatureCollection",
  "features": [
    {"type": "Feature", "properties": {"daira_code": "001", "daira_name": "Aïn Fezza", "wilaya_code": "13"}, "geometry": {"type": "Point", "coordinates": [-1.25, 34.92]}},
    {"type": "Feature", "properties": {"daira_code": "002", "daira_name": "Aïn Ghoraba", "wilaya_code": "13"}, "geometry": {"type": "Point", "coordinates": [-1.10, 34.88]}},
    {"type": "Feature", "properties": {"daira_code": "003", "daira_name": "Aïn Kebira", "wilaya_code": "13"}, "geometry": {"type": "Point", "coordinates": [-0.95, 34.95]}},
    {"type": "Feature", "properties": {"daira_code": "004", "daira_name": "Aïn Tallout", "wilaya_code": "13"}, "geometry": {"type": "Point", "coordinates": [-1.30, 34.75]}},
    {"type": "Feature", "properties": {"daira_code": "005", "daira_name": "Beni Bahdel", "wilaya_code": "13"}, "geometry": {"type": "Point", "coordinates": [-1.05, 35.10]}},
    {"type": "Feature", "properties": {"daira_code": "006", "daira_name": "Beni Boussaid", "wilaya_code": "13"}, "geometry": {"type": "Point", "coordinates": [-1.35, 35.00]}},
    {"type": "Feature", "properties": {"daira_code": "007", "daira_name": "Beni Ourtilane", "wilaya_code": "13"}, "geometry": {"type": "Point", "coordinates": [-1.42, 34.87]}},
    {"type": "Feature", "properties": {"daira_code": "008", "daira_name": "Beni Snous", "wilaya_code": "13"}, "geometry": {"type": "Point", "coordinates": [-1.18, 35.25]}},
    {"type": "Feature", "properties": {"daira_code": "009", "daira_name": "Bensekrane", "wilaya_code": "13"}, "geometry": {"type": "Point", "coordinates": [-1.32, 35.18]}},
    {"type": "Feature", "properties": {"daira_code": "010", "daira_name": "Beni Ouarsous", "wilaya_code": "13"}, "geometry": {"type": "Point", "coordinates": [-1.00, 35.05]}},
    {"type": "Feature", "properties": {"daira_code": "011", "daira_name": "Chetouane", "wilaya_code": "13"}, "geometry": {"type": "Point", "coordinates": [-1.50, 34.80]}},
    {"type": "Feature", "properties": {"daira_code": "012", "daira_name": "El Aricha", "wilaya_code": "13"}, "geometry": {"type": "Point", "coordinates": [-1.28, 34.95]}},
    {"type": "Feature", "properties": {"daira_code": "013", "daira_name": "El Fehoul", "wilaya_code": "13"}, "geometry": {"type": "Point", "coordinates": [-1.15, 34.85]}},
    {"type": "Feature", "properties": {"daira_code": "014", "daira_name": "Fellaoucene", "wilaya_code": "13"}, "geometry": {"type": "Point", "coordinates": [-1.08, 35.02]}},
    {"type": "Feature", "properties": {"daira_code": "015", "daira_name": "Ghazaouet", "wilaya_code": "13"}, "geometry": {"type": "Point", "coordinates": [-1.88, 35.12]}},
    {"type": "Feature", "properties": {"daira_code": "016", "daira_name": "Hammam Boughrara", "wilaya_code": "13"}, "geometry": {"type": "Point", "coordinates": [-1.42, 35.28]}},
    {"type": "Feature", "properties": {"daira_code": "017", "daira_name": "Hennaya", "wilaya_code": "13"}, "geometry": {"type": "Point", "coordinates": [-1.32, 35.02]}},
    {"type": "Feature", "properties": {"daira_code": "018", "daira_name": "Maghnia", "wilaya_code": "13"}, "geometry": {"type": "Point", "coordinates": [-1.78, 34.95]}},
    {"type": "Feature", "properties": {"daira_code": "019", "daira_name": "Mansourah", "wilaya_code": "13"}, "geometry": {"type": "Point", "coordinates": [-1.18, 34.90]}},
    {"type": "Feature", "properties": {"daira_code": "020", "daira_name": "Nedroma", "wilaya_code": "13"}, "geometry": {"type": "Point", "coordinates": [-1.22, 35.32]}},
    {"type": "Feature", "properties": {"daira_code": "021", "daira_name": "Ouled Mimoun", "wilaya_code": "13"}, "geometry": {"type": "Point", "coordinates": [-0.92, 35.25]}},
    {"type": "Feature", "properties": {"daira_code": "022", "daira_name": "Remchi", "wilaya_code": "13"}, "geometry": {"type": "Point", "coordinates": [-1.75, 35.25]}},
    {"type": "Feature", "properties": {"daira_code": "023", "daira_name": "Sabra", "wilaya_code": "13"}, "geometry": {"type": "Point", "coordinates": [-1.35, 35.10]}},
    {"type": "Feature", "properties": {"daira_code": "024", "daira_name": "Sebdou", "wilaya_code": "13"}, "geometry": {"type": "Point", "coordinates": [-1.02, 34.75]}},
    {"type": "Feature", "properties": {"daira_code": "025", "daira_name": "Sidi Abdelli", "wilaya_code": "13"}, "geometry": {"type": "Point", "coordinates": [-1.45, 34.92]}},
    {"type": "Feature", "properties": {"daira_code": "026", "daira_name": "Sidi Medjahed", "wilaya_code": "13"}, "geometry": {"type": "Point", "coordinates": [-1.18, 34.72]}},
    {"type": "Feature", "properties": {"daira_code": "027", "daira_name": "Souahlia", "wilaya_code": "13"}, "geometry": {"type": "Point", "coordinates": [-1.25, 34.82]}},
    {"type": "Feature", "properties": {"daira_code": "028", "daira_name": "Souani", "wilaya_code": "13"}, "geometry": {"type": "Point", "coordinates": [-1.32, 34.88]}},
    {"type": "Feature", "properties": {"daira_code": "029", "daira_name": "Tlemcen", "wilaya_code": "13"}, "geometry": {"type": "Point", "coordinates": [-1.32, 34.87]}},
    {"type": "Feature", "properties": {"daira_code": "030", "daira_name": "Zenata", "wilaya_code": "13"}, "geometry": {"type": "Point", "coordinates": [-1.12, 35.15]}}
  ]
}
