{
  "type": "FeatureCollection",
  "features": [
    {
      "type": "Feature",
      "properties": {
        "name": "Tlemcen",
        "NAME": "Tlemcen"
      },
      "geometry": {
        "type": "Polygon",
        "coordinates": [[
          [-1.35, 34.85], [-1.35, 34.95], [-1.25, 34.95], [-1.25, 34.85], [-1.35, 34.85]
        ]]
      }
    },
    {
      "type": "Feature",
      "properties": {
        "name": "Nedroma",
        "NAME": "Nedroma"
      },
      "geometry": {
        "type": "Polygon",
        "coordinates": [[
          [-1.75, 35.0], [-1.75, 35.05], [-1.65, 35.05], [-1.65, 35.0], [-1.75, 35.0]
        ]]
      }
    }
  ]
}